ONEWEB-0198             
1 48216U 21031G   23265.86597893 -.00000025  00000+0 -10162-3 0  9992
2 48216  87.8985 128.4618 0001910  63.3174 296.8151 13.14500760117337
ONEWEB-0189             
1 48217U 21031H   23266.10699408 -.00000164  00000+0 -47820-3 0  9991
2 48217  87.8980 128.3923 0001777  59.9564 300.1742 13.14500802117103
ONEWEB-0196             
1 48218U 21031J   23265.85750675  .00000075  00000+0  16776-3 0  9992
2 48218  87.8986 128.4370 0001803  73.4432 286.6896 13.14504434117071
ONEWEB-0183             
1 48219U 21031K   23266.05837243  .00000136  00000+0  33142-3 0  9997
2 48219  87.8982 128.4170 0001563  76.4373 283.6931 13.14501469117191
ONEWEB-0185             
1 48220U 21031L   23265.85859462  .00000068  00000+0  14980-3 0  9996
2 48220  87.8985 128.4313 0001450  73.6165 286.5124 13.14501411117090
ONEWEB-0187             
1 48221U 21031M   23265.90932035  .00000084  00000+0  19327-3 0  9999
2 48221  87.8984 128.4502 0001643  73.8195 286.3115 13.14500702117112
ONEWEB-0192             
1 48222U 21031N   23265.88286638 -.00000185  00000+0 -53471-3 0  9990
2 48222  87.9024 128.4145 0001836  72.2246 287.9084 13.14506686117025
ONEWEB-0219             
1 48223U 21031P   23265.86385503 -.00000056  00000+0 -18579-3 0  9997
2 48223  87.8983 128.4343 0001535  72.4210 287.7087 13.14501530117224
